{"type": "FeatureCollection", "features": [ {"type": "Feature", "properties": {"norad_id": 61186, "name": "BEIDOU-3 M25 (C47)", "group": "beidou", "lat": 36.58219965731708, "lon": -19.92789599312578, "alt_km": 21528.095082712854, "timestamp": "2025-12-24T11:33:00.282353+00:00", "meta": {"OBJECT_NAME": "BEIDOU-3 M25 (C47)", "OBJECT_ID": "2024-168B", "EPOCH": "2025-12-24T01:04:04.997856", "MEAN_MOTION": 1.86230087, "ECCENTRICITY": 0.0005428, "INCLINATION": 54.6321, "RA_OF_ASC_NODE": 308.3293, "ARG_OF_PERICENTER": 299.9145, "MEAN_ANOMALY": 174.1551, "EPHEMERIS_TYPE": 0, "CLASSIFICATION_TYPE": "U", "NORAD_CAT_ID": 61186, "ELEMENT_SET_NO": 999, "REV_AT_EPOCH": 852, "BSTAR": 0, "MEAN_MOTION_DOT": -5.3e-07, "MEAN_MOTION_DDOT": 0}, "tle": {"line1": "1 61186U 24168B   25358.04450229 -.00000053  00000+0  00000+0 0  9999", "line2": "2 61186  54.6321 308.3293 0005428 299.9145 174.1551  1.86230087  8525"}}, "geometry": {"type": "Point", "coordinates": [-19.92789599312578, 36.58219965731708]}}, {"type": "Feature", "properties": {"norad_id": 61187, "name": "BEIDOU-3 M27 (C49)", "group": "beidou", "lat": -1.5254758173805436, "lon": 129.36228547451333, "alt_km": 21535.24645568922, "timestamp": "2025-12-24T11:33:00.282365+00:00", "meta": {"OBJECT_NAME": "BEIDOU-3 M27 (C49)", "OBJECT_ID": "2024-168C", "EPOCH": "2025-12-23T10:00:54.789120", "MEAN_MOTION": 1.86230279, "ECCENTRICITY": 0.00025534, "INCLINATION": 54.6281, "RA_OF_ASC_NODE": 308.3346, "ARG_OF_PERICENTER": 340.8055, "MEAN_ANOMALY": 207.7074, "EPHEMERIS_TYPE": 0, "CLASSIFICATION_TYPE": "U", "NORAD_CAT_ID": 61187, "ELEMENT_SET_NO": 999, "REV_AT_EPOCH": 598, "BSTAR": 0, "MEAN_MOTION_DOT": -5.4e-07, "MEAN_MOTION_DDOT": 0}, "tle": {"line1": "1 61187U 24168C   25357.41730080 -.00000054  00000+0  00000+0 0  9997", "line2": "2 61187  54.6281 308.3346 0002553 340.8055 207.7074  1.86230279  5985"}}, "geometry": {"type": "Point", "coordinates": [129.36228547451333, -1.5254758173805436]}}]}